$$SOE
2460721.500000000, A.D. 2025-Feb-15 00:00:00.0000, -1.893028769048254E+08, -4.174482608951672E+08, -2.976227080835634E+07,
2460728.500000000, A.D. 2025-Feb-22 00:00:00.0000, -1.797454014229575E+08, -4.206071673894613E+08, -2.820011447072211E+07,
2460735.500000000, A.D. 2025-Mar-01 00:00:00.0000, -1.700972672810878E+08, -4.235539875891098E+08, -2.662373472504070E+07,
2460742.500000000, A.D. 2025-Mar-08 00:00:00.0000, -1.603627375616965E+08, -4.262857398713213E+08, -2.503383306264564E+07,
2460749.500000000, A.D. 2025-Mar-15 00:00:00.0000, -1.505461780000468E+08, -4.287995072807485E+08, -2.343112767418179E+07,
2460756.500000000, A.D. 2025-Mar-22 00:00:00.0000, -1.406520595666285E+08, -4.310924407993149E+08, -2.181635325369167E+07,
2460763.500000000, A.D. 2025-Mar-29 00:00:00.0000, -1.306849595695634E+08, -4.331617649862119E+08, -2.019026109355736E+07,
2460770.500000000, A.D. 2025-Apr-05 00:00:00.0000, -1.206495609436610E+08, -4.350047828502297E+08, -1.855361924272951E+07,
2460777.500000000, A.D. 2025-Apr-12 00:00:00.0000, -1.105506516440852E+08, -4.366188798496252E+08, -1.690721254197171E+07,
2460784.500000000, A.D. 2025-Apr-19 00:00:00.0000, -1.003931243234958E+08, -4.380015278989231E+08, -1.525184258974293E+07,
2460791.500000000, A.D. 2025-Apr-26 00:00:00.0000, -9.018197601248276E+07, -4.391502895828284E+08, -1.358832767890638E+07,
2460798.500000000, A.D. 2025-May-03 00:00:00.0000, -7.992230768087515E+07, -4.400628225542380E+08, -1.191750271172786E+07,
2460805.500000000, A.D. 2025-May-10 00:00:00.0000, -6.961932364231442E+07, -4.407368841029076E+08, -1.024021909359831E+07,
2460812.500000000, A.D. 2025-May-17 00:00:00.0000, -5.927833075597538E+07, -4.411703359300530E+08, -8.557344610649854E+06,
2460819.500000000, A.D. 2025-May-24 00:00:00.0000, -4.890473724143810E+07, -4.413611491767945E+08, -6.869763310113430E+06,
2460826.500000000, A.D. 2025-May-31 00:00:00.0000, -3.850405067810445E+07, -4.413074093889198E+08, -5.178375394880772E+06,
2460833.500000000, A.D. 2025-Jun-07 00:00:00.0000, -2.808187557931832E+07, -4.410073202071135E+08, -3.484096995667756E+06,
2460840.500000000, A.D. 2025-Jun-14 00:00:00.0000, -1.764391289568392E+07, -4.404592064428772E+08, -1.787859657000005E+06,
2460847.500000000, A.D. 2025-Jun-21 00:00:00.0000, -7.195960221036240E+06, -4.396615198037738E+08, -9.060991453436017E+04,
2460854.500000000, A.D. 2025-Jun-28 00:00:00.0000, 3.256090436614973E+06, -4.386128454954906E+08, 1.606690895150006E+06,
2460861.500000000, A.D. 2025-Jul-05 00:00:00.0000, 1.370625581138838E+07, -4.373119075352678E+08, 3.303066909364015E+06,
2460868.500000000, A.D. 2025-Jul-12 00:00:00.0000, 2.414846428120365E+07, -4.357575735711390E+08, 4.997528143845856E+06,
2460875.500000000, A.D. 2025-Jul-19 00:00:00.0000, 3.457655871375535E+07, -4.339488597701416E+08, 6.689070964206010E+06,
2460882.500000000, A.D. 2025-Jul-26 00:00:00.0000, 4.498429947577459E+07, -4.318849358195413E+08, 8.376678601867586E+06,
2460889.500000000, A.D. 2025-Aug-02 00:00:00.0000, 5.536536767952175E+07, -4.295651300060050E+08, 1.005932171161622E+07,
2460896.500000000, A.D. 2025-Aug-09 00:00:00.0000, 6.571336869813573E+07, -4.269889343730965E+08, 1.173595896867263E+07,
2460903.500000000, A.D. 2025-Aug-16 00:00:00.0000, 7.602183603449285E+07, -4.241560100056522E+08, 1.340553769434553E+07,
2460910.500000000, A.D. 2025-Aug-23 00:00:00.0000, 8.628423584289819E+07, -4.210661924094684E+08, 1.506699448615205E+07,
2460917.500000000, A.D. 2025-Aug-30 00:00:00.0000, 9.649397243795794E+07, -4.177194962562537E+08, 1.671925588196480E+07,
2460924.500000000, A.D. 2025-Sep-06 00:00:00.0000, 1.066443933766226E+08, -4.141161184758698E+08, 1.836123927119550E+07,
2460931.500000000, A.D. 2025-Sep-13 00:00:00.0000, 1.167287924459682E+08, -4.102564421585426E+08, 1.999185400411803E+07,
2460938.500000000, A.D. 2025-Sep-20 00:00:00.0000, 1.267404138334626E+08, -4.061410428902815E+08, 2.161000226516341E+07,
2460945.500000000, A.D. 2025-Sep-27 00:00:00.0000, 1.366724585412194E+08, -4.017706943898859E+08, 2.321457986785220E+07,
2460952.500000000, A.D. 2025-Oct-04 00:00:00.0000, 1.465180910286374E+08, -3.971463728881230E+08, 2.480447720078957E+07,
2460959.500000000, A.D. 2025-Oct-11 00:00:00.0000, 1.562704457092065E+08, -3.922692611706213E+08, 2.637858028199223E+07,
2460966.500000000, A.D. 2025-Oct-18 00:00:00.0000, 1.659226335831696E+08, -3.871407525365558E+08, 2.793577187283289E+07,
2460973.500000000, A.D. 2025-Oct-25 00:00:00.0000, 1.754677491419581E+08, -3.817624546391284E+08, 2.947493263908315E+07,
2460980.500000000, A.D. 2025-Nov-01 00:00:00.0000, 1.848988775784523E+08, -3.761361931685407E+08, 3.099494235563713E+07,
2460987.500000000, A.D. 2025-Nov-08 00:00:00.0000, 1.942091023308232E+08, -3.702640153842212E+08, 3.249468114764087E+07,
2460994.500000000, A.D. 2025-Nov-15 00:00:00.0000, 2.033915131001104E+08, -3.641481935301992E+08, 3.397303074788965E+07,
2461001.500000000, A.D. 2025-Nov-22 00:00:00.0000, 2.124392147352915E+08, -3.577912278900179E+08, 3.542887574980357E+07,
2461008.500000000, A.D. 2025-Nov-29 00:00:00.0000, 2.213453368213653E+08, -3.511958483238828E+08, 3.686110496101931E+07,
2461015.500000000, A.D. 2025-Dec-06 00:00:00.0000, 2.301030416785899E+08, -3.443650144014768E+08, 3.826861305309997E+07,
2461022.500000000, A.D. 2025-Dec-13 00:00:00.0000, 2.387055311897311E+08, -3.373019174764184E+08, 3.965030218905170E+07,
2461029.500000000, A.D. 2025-Dec-20 00:00:00.0000, 2.471460559313668E+08, -3.300099836551625E+08, 4.100508338855439E+07,
2461036.500000000, A.D. 2025-Dec-27 00:00:00.0000, 2.554179255173946E+08, -3.224928750477034E+08, 4.233187793817599E+07,
2461043.500000000, A.D. 2026-Jan-03 00:00:00.0000, 2.635145186749082E+08, -3.147544898958784E+08, 4.362961892705648E+07,
2461050.500000000, A.D. 2026-Jan-10 00:00:00.0000, 2.714292931388805E+08, -3.067989622391770E+08, 4.489725283914892E+07,
2461057.500000000, A.D. 2026-Jan-17 00:00:00.0000, 2.791557955721721E+08, -2.986306611915632E+08, 4.613374116941503E+07,
2461064.500000000, A.D. 2026-Jan-24 00:00:00.0000, 2.866876715598184E+08, -2.902541897893463E+08, 4.733806205423076E+07,
2461071.500000000, A.D. 2026-Jan-31 00:00:00.0000, 2.940186756694231E+08, -2.816743834003713E+08, 4.850921190782822E+07,
2461078.500000000, A.D. 2026-Feb-07 00:00:00.0000, 3.011426816063523E+08, -2.728963077346022E+08, 4.964620704813109E+07,
2461085.500000000, A.D. 2026-Feb-14 00:00:00.0000, 3.080536926850922E+08, -2.639252564552669E+08, 5.074808528114002E+07,
2461092.500000000, A.D. 2026-Feb-21 00:00:00.0000, 3.147458529748705E+08, -2.547667478018497E+08, 5.181390745030075E+07,
2461099.500000000, A.D. 2026-Feb-28 00:00:00.0000, 3.212134580049701E+08, -2.454265190666358E+08, 5.284275914070563E+07,
2461106.500000000, A.D. 2026-Mar-07 00:00:00.0000, 3.274509629370853E+08, -2.359105208743025E+08, 5.383375256321164E+07,
2461113.500000000, A.D. 2026-Mar-14 00:00:00.0000, 3.334529909422148E+08, -2.262249135966965E+08, 5.478602816739240E+07,
2461120.500000000, A.D. 2026-Mar-21 00:00:00.0000, 3.392143435269009E+08, -2.163760630051777E+08, 5.569875605046444E+07,
2461127.500000000, A.D. 2026-Mar-28 00:00:00.0000, 3.447300107621282E+08, -2.063705341357307E+08, 5.657113742469586E+07,
2461134.500000000, A.D. 2026-Apr-04 00:00:00.0000, 3.499951807735074E+08, -1.962150843393414E+08, 5.740240611382616E+07,
2461141.500000000, A.D. 2026-Apr-11 00:00:00.0000, 3.550052487290079E+08, -1.859166558870254E+08, 5.819183001796386E+07,
2461148.500000000, A.D. 2026-Apr-18 00:00:00.0000, 3.597558254465100E+08, -1.754823681485411E+08, 5.893871252593724E+07,
2461155.500000000, A.D. 2026-Apr-25 00:00:00.0000, 3.642427456309302E+08, -1.649195093456157E+08, 5.964239386643966E+07,
2461162.500000000, A.D. 2026-May-02 00:00:00.0000, 3.684620757363907E+08, -1.542355279281625E+08, 6.030225238721626E+07,
2461169.500000000, A.D. 2026-May-09 00:00:00.0000, 3.724101215431768E+08, -1.434380236615247E+08, 6.091770573978239E+07,
2461176.500000000, A.D. 2026-May-16 00:00:00.0000, 3.760834357932151E+08, -1.325347383098921E+08, 6.148821194040850E+07,
2461183.500000000, A.D. 2026-May-23 00:00:00.0000, 3.794788259049455E+08, -1.215335449186343E+08, 6.201327038108733E+07,
2461190.500000000, A.D. 2026-May-30 00:00:00.0000, 3.825933596627637E+08, -1.104424354059048E+08, 6.249242300370017E+07,
2461197.500000000, A.D. 2026-Jun-06 00:00:00.0000, 3.854243685373122E+08, -9.926950977171056E+07, 6.292525539501674E+07,
2461204.500000000, A.D. 2026-Jun-13 00:00:00.0000, 3.879694522750459E+08, -8.802296675997259E+07, 6.331139747744519E+07,
2461211.500000000, A.D. 2026-Jun-20 00:00:00.0000, 3.902264842325095E+08, -7.671109308234131E+07, 6.365052407634631E+07,
2461218.500000000, A.D. 2026-Jun-27 00:00:00.0000, 3.921936157379099E+08, -6.534225158134636E+07, 6.394235548876411E+07,
2461225.500000000, A.D. 2026-Jul-04 00:00:00.0000, 3.938692794635556E+08, -5.392486914763749E+07, 6.418665798753925E+07,
2461232.500000000, A.D. 2026-Jul-11 00:00:00.0000, 3.952521920494670E+08, -4.246742456431054E+07, 6.438324422439159E+07,
2461239.500000000, A.D. 2026-Jul-18 00:00:00.0000, 3.963413560603554E+08, -3.097843629454362E+07, 6.453197352374366E+07,
2461246.500000000, A.D. 2026-Jul-25 00:00:00.0000, 3.971360612933170E+08, -1.946645025247427E+07, 6.463275206407459E+07,
2461253.500000000, A.D. 2026-Aug-01 00:00:00.0000, 3.976358854807552E+08, -7.940027648753181E+06, 6.468553293791848E+07,
2461260.500000000, A.D. 2026-Aug-08 00:00:00.0000, 3.978406946027285E+08, 3.592267009313524E+06, 6.469031606768420E+07,
2461267.500000000, A.D. 2026-Aug-15 00:00:00.0000, 3.977506432245641E+08, 1.512187816988398E+07, 6.464714797574767E+07,
2461274.500000000, A.D. 2026-Aug-22 00:00:00.0000, 3.973661741029025E+08, 2.664027292170682E+07, 6.455612157909714E+07,
2461281.500000000, A.D. 2026-Aug-29 00:00:00.0000, 3.966880147834088E+08, 3.813895469945592E+07, 6.441737610943784E+07,
2461288.500000000, A.D. 2026-Sep-05 00:00:00.0000, 3.957171733389881E+08, 4.960947409813490E+07, 6.423109673169789E+07,
$$EOE